NORAD_CAT_ID,OBJECT_NAME,OBJECT_TYPE,EPOCH,MEAN_MOTION,ECCENTRICITY,INCLINATION,RA_OF_ASC_NODE,ARG_OF_PERICENTER,MEAN_ANOMALY,BSTAR,MEAN_MOTION_DOT,MEAN_MOTION_DDOT,TLE_LINE0,TLE_LINE1,TLE_LINE2,SEMIMAJOR_AXIS,PERIOD,APOGEE,PERIGEE,DECAYED
53132.0,STARLINK-4063,PAYLOAD,2024-06-18 14:02:53,15.08846517,0.0001378,53.2165,118.2784,87.1934,272.9215,9.0573e-05,1.154e-05,0.0,0 STARLINK-4063,1 53132U 22083A   24170.58534241  .00001154  00000-0  90573-4 0  9994,2 53132  53.2165 118.2784 0001378  87.1934 272.9215 15.08846517106246,6917.86,95.437,540.679,538.772,0.0
53132.0,STARLINK-4063,PAYLOAD,2024-06-19 02:45:59,15.08836539,0.0001384,53.2166,115.9012,81.8991,278.2158,8.5482e-05,1.073e-05,0.0,0 STARLINK-4063,1 53132U 22083A   24171.11526854  .00001073  00000-0  85482-4 0  9998,2 53132  53.2166 115.9012 0001384  81.8991 278.2158 15.08836539106952,6917.891,95.438,540.713,538.799,0.0
53132.0,STARLINK-4063,PAYLOAD,2024-06-19 13:53:40,15.08845729,0.0001377,53.2167,113.8171,93.086,267.029,5.4812e-05,5.85e-06,0.0,0 STARLINK-4063,1 53132U 22083A   24171.57894244  .00000585  00000-0  54812-4 0  9999,2 53132  53.2167 113.8171 0001377  93.0860 267.0290 15.08845729106390,6917.863,95.437,540.68,538.775,0.0
53132.0,STARLINK-4063,PAYLOAD,2024-06-20 02:36:46,15.0883986,0.0001487,53.2174,111.4365,98.3714,261.7447,-1.3793e-05,-5.07e-06,0.0,0 STARLINK-4063,1 53132U 22083A   24172.10886780 -.00000507  00000-0 -13793-4 0  9994,2 53132  53.2174 111.4365 0001487  98.3714 261.7447 15.08839860107109,6917.881,95.438,540.775,538.717,0.0
53132.0,STARLINK-4063,PAYLOAD,2024-06-20 05:47:32,15.0883989,0.0001563,53.2182,110.8412,102.5634,257.5533,2.4175e-06,-2.5e-06,0.0,0 STARLINK-4063,1 53132U 22083A   24172.24134716 -.00000250  00000-0  24175-5 0  9995,2 53132  53.2182 110.8412 0001563 102.5634 257.5533 15.08839890106491,6917.881,95.438,540.827,538.664,0.0
53132.0,STARLINK-4063,PAYLOAD,2024-06-20 20:06:00,15.08837537,0.000163,53.2182,108.1646,106.9558,253.1613,-4.4251e-06,-3.58e-06,0.0,0 STARLINK-4063,1 53132U 22083A   24172.83750902 -.00000358  00000-0 -44251-5 0  9998,2 53132  53.2182 108.1646 0001630 106.9558 253.1613 15.08837537106585,6917.888,95.438,540.881,538.625,0.0
53132.0,STARLINK-4063,PAYLOAD,2024-06-21 02:27:33,15.08833899,0.0001564,53.2184,106.9757,106.1682,253.9482,-4.6569e-05,-1.029e-05,0.0,0 STARLINK-4063,1 53132U 22083A   24173.10247307 -.00001029  00000-0 -46569-4 0  9998,2 53132  53.2184 106.9757 0001564 106.1682 253.9482 15.08833899107256,6917.899,95.438,540.846,538.682,0.0
53132.0,STARLINK-4063,PAYLOAD,2024-06-21 05:38:19,15.08834901,0.0001442,53.2173,106.3833,96.2983,263.8173,-4.8203e-05,-1.055e-05,0.0,0 STARLINK-4063,1 53132U 22083A   24173.23495345 -.00001055  00000-0 -48203-4 0  9995,2 53132  53.2173 106.3833 0001442  96.2983 263.8173 15.08834901106645,6917.896,95.438,540.759,538.763,0.0
53132.0,STARLINK-4063,PAYLOAD,2024-06-22 00:42:57,15.08835761,0.0001361,53.2173,102.8142,93.5477,266.5671,5.873e-05,6.47e-06,0.0,0 STARLINK-4063,1 53132U 22083A   24174.02983117  .00000647  00000-0  58730-4 0  9992,2 53132  53.2173 102.8142 0001361  93.5477 266.5671 15.08835761107398,6917.893,95.438,540.7,538.817,0.0
53132.0,STARLINK-4063,PAYLOAD,2024-06-22 22:58:21,15.08833067,0.000128,53.217,98.6517,92.685,267.4288,7.1146e-05,8.44e-06,0.0,0 STARLINK-4063,1 53132U 22083A   24174.95719527  .00000844  00000-0  71146-4 0  9991,2 53132  53.2170  98.6517 0001280  92.6850 267.4288 15.08833067106905,6917.902,95.438,540.652,538.881,0.0
53132.0,STARLINK-4063,PAYLOAD,2024-06-23 03:44:31,15.08833071,0.0001274,53.2169,97.7596,92.1798,267.934,6.7956e-05,7.94e-06,0.0,0 STARLINK-4063,1 53132U 22083A   24175.15591632  .00000794  00000-0  67956-4 0  9997,2 53132  53.2169  97.7596 0001274  92.1798 267.9340 15.08833071107561,6917.902,95.438,540.648,538.885,0.0
53132.0,STARLINK-4063,PAYLOAD,2024-06-23 22:49:08,15.08837699,0.00013,53.2168,94.1901,92.0923,268.0218,4.1728e-05,3.76e-06,0.0,0 STARLINK-4063,1 53132U 22083A   24175.95079607  .00000376  00000-0  41728-4 0  9993,2 53132  53.2168  94.1901 0001300  92.0923 268.0218 15.08837699107050,6917.887,95.438,540.652,538.853,0.0
53132.0,STARLINK-4063,PAYLOAD,2024-06-24 03:35:17,15.08843616,0.0001395,53.2173,93.2955,84.1593,275.9558,8.9198e-05,1.132e-05,0.0,0 STARLINK-4063,1 53132U 22083A   24176.14951125  .00001132  00000-0  89198-4 0  9993,2 53132  53.2173  93.2955 0001395  84.1593 275.9558 15.08843616107717,6917.869,95.437,540.699,538.769,0.0
53132.0,STARLINK-4063,PAYLOAD,2024-06-24 22:39:55,15.08838311,0.0001461,53.2177,89.7262,81.064,279.0517,6.0817e-05,6.8e-06,0.0,0 STARLINK-4063,1 53132U 22083A   24176.94439546  .00000680  00000-0  60817-4 0  9993,2 53132  53.2177  89.7262 0001461  81.0640 279.0517 15.08838311107205,6917.886,95.438,540.761,538.74,0.0
53132.0,STARLINK-4063,PAYLOAD,2024-06-25 01:50:42,15.08837707,0.0001454,53.2178,89.132,80.4128,279.7029,5.3061e-05,5.57e-06,0.0,0 STARLINK-4063,1 53132U 22083A   24177.07687631  .00000557  00000-0  53061-4 0  9994,2 53132  53.2178  89.1320 0001454  80.4128 279.7029 15.08837707107855,6917.887,95.438,540.758,538.747,0.0
53132.0,STARLINK-4063,PAYLOAD,2024-06-25 22:30:42,15.08843416,0.0001544,53.2185,85.2669,78.1506,281.9659,5.5343e-06,-2e-06,0.0,0 STARLINK-4063,1 53132U 22083A   24177.93799507 -.00000200  00000-0  55343-5 0  9997,2 53132  53.2185  85.2669 0001544  78.1506 281.9659 15.08843416107353,6917.87,95.437,540.803,538.667,0.0
53132.0,STARLINK-4063,PAYLOAD,2024-06-26 00:06:05,15.08844694,0.0001618,53.2186,84.9707,74.6312,285.4859,1.8853e-05,1.2e-07,0.0,0 STARLINK-4063,1 53132U 22083A   24178.00423408  .00000012  00000-0  18853-4 0  9994,2 53132  53.2186  84.9707 0001618  74.6312 285.4859 15.08844694107362,6917.866,95.437,540.85,538.612,0.0
53132.0,STARLINK-4063,PAYLOAD,2024-06-26 23:56:52,15.08842228,0.0001592,53.2182,80.5141,73.4893,286.6274,6.5314e-05,7.52e-06,0.0,0 STARLINK-4063,1 53132U 22083A   24178.99783224  .00000752  00000-0  65314-4 0  9992,2 53132  53.2182  80.5141 0001592  73.4893 286.6274 15.08842228108146,6917.874,95.437,540.84,538.637,0.0
53132.0,STARLINK-4063,PAYLOAD,2024-06-27 20:36:53,15.08802811,0.0002207,53.2174,76.6424,127.7827,232.3366,0.00040169,6.104e-05,0.0,0 STARLINK-4063,1 53132U 22083A   24179.85895827  .00006104  00000-0  40169-3 0  9998,2 53132  53.2174  76.6424 0002207 127.7827 232.3366 15.08802811108279,6917.994,95.44,541.386,538.332,0.0
53132.0,STARLINK-4063,PAYLOAD,2024-06-27 22:12:17,15.08804049,0.0002215,53.2177,76.3449,129.0333,231.0856,0.00039199,5.95e-05,0.0,0 STARLINK-4063,1 53132U 22083A   24179.92519910  .00005950  00000-0  39199-3 0  9991,2 53132  53.2177  76.3449 0002215 129.0333 231.0856 15.08804049107658,6917.99,95.44,541.388,538.323,0.0
53132.0,STARLINK-4063,PAYLOAD,2024-06-27 23:47:40,15.08834041,0.0001517,53.218,76.0521,103.5227,256.5935,-4.7241e-05,-1.04e-05,0.0,0 STARLINK-4063,1 53132U 22083A   24179.99144042 -.00001040  00000-0 -47241-4 0  9994,2 53132  53.2180  76.0521 0001517 103.5227 256.5935 15.08834041108299,6917.899,95.438,540.813,538.714,0.0
53132.0,STARLINK-4063,PAYLOAD,2024-06-28 20:27:39,15.08864626,0.0001258,53.2182,72.1878,96.2331,263.8805,-0.00011411,-2.105e-05,0.0,0 STARLINK-4063,1 53132U 22083A   24180.85254588 -.00002105  00000-0 -11411-3 0  9990,2 53132  53.2182  72.1878 0001258  96.2331 263.8805 15.08864626108423,6917.805,95.436,540.54,538.8,0.0
53132.0,STARLINK-4063,PAYLOAD,2024-06-28 22:03:02,15.08875368,0.0001177,53.2181,71.8904,102.214,257.8984,-0.00023651,-4.054e-05,0.0,0 STARLINK-4063,1 53132U 22083A   24180.91878293 -.00004054  00000-0 -23651-3 0  9996,2 53132  53.2181  71.8904 0001177 102.2140 257.8984 15.08875368107801,6917.772,95.435,540.452,538.823,0.0
53132.0,STARLINK-4063,PAYLOAD,2024-06-28 23:38:26,15.08852944,0.0001192,53.2166,71.5952,81.5071,278.6056,0.00012828,1.755e-05,0.0,0 STARLINK-4063,1 53132U 22083A   24180.98502402  .00001755  00000-0  12828-3 0  9996,2 53132  53.2166  71.5952 0001192  81.5071 278.6056 15.08852944107810,6917.841,95.437,540.53,538.881,0.0
53132.0,STARLINK-4063,PAYLOAD,2024-06-29 20:18:29,15.08809981,0.0001275,53.218,67.7275,109.5142,250.5988,-6.5725e-05,-1.333e-05,0.0,0 STARLINK-4063,1 53132U 22083A   24181.84617647 -.00001333  00000-0 -65725-4 0  9999,2 53132  53.2180  67.7275 0001275 109.5142 250.5988 15.08809981108573,6917.972,95.439,540.719,538.955,0.0
53132.0,STARLINK-4063,PAYLOAD,2024-06-29 21:53:51,15.08814242,0.0001248,53.2172,67.4297,108.9093,251.2035,-0.00023514,-4.025e-05,0.0,0 STARLINK-4063,1 53132U 22083A   24181.91240573 -.00004025  00000-0 -23514-3 0  9997,2 53132  53.2172  67.4297 0001248 108.9093 251.2035 15.08814242107951,6917.959,95.439,540.687,538.961,0.0
53132.0,STARLINK-4063,PAYLOAD,2024-06-29 23:29:15,15.08816022,0.0001194,53.2167,67.1334,110.1659,249.9462,-0.00019376,-3.368e-05,0.0,0 STARLINK-4063,1 53132U 22083A   24181.97864601 -.00003368  00000-0 -19376-3 0  9997,2 53132  53.2167  67.1334 0001194 110.1659 249.9462 15.08816022108594,6917.954,95.439,540.645,538.993,0.0
53132.0,STARLINK-4063,PAYLOAD,2024-06-30 09:01:33,15.08830955,0.0001214,53.216,65.3479,114.2577,245.8542,-0.00010449,-1.95e-05,0.0,0 STARLINK-4063,1 53132U 22083A   24182.37607864 -.00001950  00000-0 -10449-3 0  9995,2 53132  53.2160  65.3479 0001214 114.2577 245.8542 15.08830955108656,6917.908,95.438,540.613,538.933,0.0
53132.0,STARLINK-4063,PAYLOAD,2024-06-30 21:44:38,15.08836885,0.0001273,53.2161,62.9691,123.4839,236.6275,0.00080862,0.00012604,0.0,0 STARLINK-4063,1 53132U 22083A   24182.90600405  .00012604  00000-0  80862-3 0  9990,2 53132  53.2161  62.9691 0001273 123.4839 236.6275 15.08836885108103,6917.89,95.438,540.636,538.874,0.0
53132.0,STARLINK-4063,PAYLOAD,2024-06-30 23:20:01,15.08845082,0.0001314,53.2164,62.6721,125.2996,234.8119,0.0012278,0.00019309,0.0,0 STARLINK-4063,1 53132U 22083A   24182.97224439  .00019309  00000-0  12278-2 0  9990,2 53132  53.2164  62.6721 0001314 125.2996 234.8119 15.08845082108743,6917.865,95.437,540.639,538.821,0.0
